LEMUR-2-DEMBITZ         
1 42842U 17042T   26068.47492167  .00020231  00000+0  76561-3 0  9991
2 42842  97.3807 250.9241 0006961  17.1421 343.0051 15.26947128473114
STARLINK-31848          
1 59784U 24093C   26068.41481086 -.00000441  00000+0 -64959-5 0  9993
2 59784  43.0002 206.9663 0001099 289.2615  70.8118 15.27561249102693
